C/2015 H1 (Bressi),e,140.6015,325.8922,21.8905,32.25155,0.0053812,0.94015197,3.8515,03/13.0/2017,2000,g 13.5,4.0
# From MPC102096
C/2015 H2 (PANSTARRS),h,09/13.3090/2016,33.7050,350.6927,287.9112,1.003561,4.967114,2000,7.5,4.0
# From MPC 10028
P/2015 HG16 (PANSTARRS),e,18.8880,59.3360,47.7370,4.772547,0.0945320,0.34529007,93.6834,03/13.0/2017,2000,g 12.5,4.0
# From MPC100579
C/2015 J1 (PANSTARRS),h,06/29.8607/2014,94.9870,219.9917,315.5069,1.001776,6.023042,2000,8.5,4.0
# From MPC101096
C/2015 J2 (PANSTARRS),e,17.2788,56.7392,203.7240,262.3920,0.0002319,0.98353338,0.0000,09/09.1026/2015,2000,g 10.0,4.0
# From MPC 95733
P/2015 J3 (NEOWISE),e,8.1250,111.3963,129.3197,3.350792,0.1606878,0.55435801,118.9137,03/13.0/2017,2000,g 16.5,4.0
# From MPC101096
C/2015 K1 (MASTER),e,29.3834,5.1765,280.1652,182.5310,0.0003997,0.98599981,0.0000,10/13.7134/2014,2000,g  9.0,4.0
# From MPC 95733
C/2015 K2 (PANSTARRS),e,29.1163,223.6922,15.8098,271.4363,0.0002204,0.99463817,0.0000,06/08.8910/2015,2000,g 20.0,4.0
# From MPC 95733
C/2015 K4 (PANSTARRS),h,05/01.7581/2015,80.2600,250.7454,357.5609,1.000176,2.008357,2000,15.0,4.0
# From MPC 95213
P/2015 K5 (PANSTARRS),e,39.9793,134.2655,106.0527,6.704735,0.0567717,0.55456509,36.6364,03/13.0/2017,2000,g 13.5,4.0
# From MPC103845
C/2015 LC2 (PANSTARRS),h,05/01.9389/2015,93.7103,223.5667,341.8800,1.000914,5.892678,2000,8.0,4.0
# From MPC 95734
C/2015 M1 (PANSTARRS),e,57.3048,100.2624,163.9940,389.5833,0.0001282,0.99463205,0.0000,05/15.7164/2015,2000,g 16.5,4.0
# From MPC102096
P/2015 M2 (PANSTARRS),e,3.9734,86.5949,224.7422,7.206633,0.0509455,0.17962640,28.5590,03/13.0/2017,2000,g  8.5,4.0
# From MPC102097
C/2015 M3 (PANSTARRS),e,65.9409,143.0918,123.7623,136.1061,0.0006207,0.97390153,0.0000,08/26.2876/2015,2000,g 12.0,4.0
# From MPC103845
C/2015 O1 (PANSTARRS),e,127.2097,299.8489,89.5735,138041,0.0000000,0.99997298,0.0000,02/18.9465/2018,2000,g  6.5,4.0
# From MPC 95734
C/2015 P3 (SWAN),e,58.1821,88.1007,132.8981,234.3189,0.0002748,0.99694743,0.0000,07/27.8127/2015,2000,g 15.5,4.0
# From MPC 99271
P/2015 P4 (PANSTARRS),e,8.7145,104.7414,280.8012,6.066157,0.0659681,0.58374990,27.6451,03/13.0/2017,2000,g 14.0,4.0
# From MPC102952
P/2015 PD229 (Cameron-ISON),e,2.0261,342.7609,352.2818,7.175806,0.0512741,0.32681439,29.6197,03/13.0/2017,2000,g 11.5,2.0
# From MPC 99819
P/2015 Q1 (Scotti),e,22.6636,203.2783,199.2103,3.436069,0.1547431,0.48898413,85.2023,03/13.0/2017,2000,g 14.0,4.0
# From MPC 96867
P/2015 Q2 (Pimentel),e,146.2153,228.2489,244.4447,7.406686,0.0488954,0.75416921,26.8810,03/13.0/2017,2000,g 15.5,4.0
# From MPC 98562
P/2015 R1 (PANSTARRS),e,22.6716,48.5199,300.4835,5.890838,0.0689348,0.63255281,43.1786,03/13.0/2017,2000,g 14.0,4.0
# From MPC 95734
P/2015 R2 (PANSTARRS),e,15.4588,168.6767,149.7056,4.494276,0.1034462,0.45122040,66.5334,03/13.0/2017,2000,g 14.5,4.0
# From MPC102097
C/2015 R3 (PANSTARRS),e,83.6355,36.4068,272.0183,5210,0.0000026,0.99905906,0.0000,02/12.1150/2014,2000,g 10.0,4.0
# From MPC103845
C/2015 T2 (PANSTARRS),h,05/20.5027/2017,124.5457,51.0596,30.7659,1.000378,6.935400,2000,8.0,4.0
# From MPC 96280
P/2015 T3 (PANSTARRS),e,13.0937,120.5019,178.6330,4.326181,0.1095335,0.50818108,359.9227,12/21.0/2014,2000,g 14.0,4.0
# From MPC102953
C/2015 T4 (PANSTARRS),e,87.9202,251.7889,270.1483,86.80933,0.0012186,0.97354564,0.0000,06/18.9682/2016,2000,g 11.0,4.0
# From MPC102097
C/2015 T5 (Sheppard-Tholen),e,11.0464,311.1645,61.8064,27.92567,0.0066788,0.66562040,2.7707,03/13.0/2017,2000,g  7.5,4.0
# From MPC102953
P/2015 TO19 (Lemmon-PANSTARRS),e,6.5001,321.6430,89.2903,4.560543,0.1011997,0.35848850,37.5499,03/13.0/2017,2000,g 14.0,4.0
# From MPC103845
P/2015 TP200 (LINEAR),e,8.7723,6.9754,82.7424,7.296230,0.0500099,0.53601431,6.7897,03/13.0/2017,2000,g 11.0,4.0
# From MPC101097
C/2015 TQ209 (LINEAR),e,11.3952,224.0809,281.4990,1432,0.0000182,0.99901369,0.0000,08/27.5728/2016,2000,g 10.5,4.0
# From MPC103845
C/2015 V1 (PANSTARRS),h,12/17.8594/2017,139.2312,197.1930,179.6578,1.000489,4.266541,2000,6.5,4.0
# From MPC103845
C/2015 V2 (Johnson),h,06/12.3431/2017,49.8752,69.8510,164.8964,1.001763,1.636982,2000,5.0,4.0
# From MPC102953
C/2015 V3 (PANSTARRS),e,86.2318,2.3406,0.7862,750.0239,0.0000480,0.99435368,0.0000,11/24.6354/2015,2000,g  9.0,4.0
# From MPC103845
C/2015 V4 (PANSTARRS),e,60.7504,179.8967,306.9700,18.56491,0.0123215,0.70590966,2.4196,03/13.0/2017,2000,g  8.5,4.0
# From MPC103845
C/2015 VL62 (Lemmon-Yeung-PANSTARRS),h,08/28.5959/2017,165.6142,94.5468,128.3607,1.002008,2.720266,2000,8.0,4.0
# From MPC102098
C/2015 WZ (PANSTARRS),e,134.1491,40.0434,66.7403,196.7831,0.0003570,0.99300040,0.0000,04/15.8115/2016,2000,g 15.0,4.0
# From MPC101098
C/2015 W1 (Gibbs),h,05/17.2122/2016,87.3146,114.3167,48.1248,1.001235,2.232025,2000,13.0,4.0
# From MPC101098
P/2015 W2 (Catalina),e,11.6083,294.2392,117.6881,7.319785,0.0497687,0.63389051,26.3291,03/13.0/2017,2000,g 13.0,4.0
# From MPC101098
P/2015 X1 (PANSTARRS),e,12.1617,161.7919,219.0447,3.628415,0.1426030,0.42004084,74.0667,03/13.0/2017,2000,g 16.0,4.0
# From MPC103846
C/2015 XY1 (Lemmon),h,04/30.3796/2018,148.8366,281.6154,196.3757,1.002876,7.927667,2000,5.5,4.0
# From MPC 10028
C/2015 X2 (Catalina),e,72.4558,101.0960,42.0270,15.73191,0.0157954,0.87891370,7.0811,03/13.0/2017,2000,g 16.0,4.0
# From MPC 97498
P/2015 X3 (PANSTARRS),e,24.3806,77.3291,306.8613,5.020312,0.0876210,0.43779165,51.1173,03/13.0/2017,2000,g 15.0,4.0
# From MPC103846
C/2015 X4 (Elenin),e,29.5015,262.6255,176.3758,18.12712,0.0127706,0.81266561,6.3269,03/13.0/2017,2000,g 10.0,4.0
# From MPC103846
C/2015 X5 (PANSTARRS),h,12/31.0165/2017,124.2793,122.3104,27.7467,1.002774,6.801904,2000,7.5,4.0
# From MPC101098
P/2015 X6 (PANSTARRS),e,4.5573,107.1018,329.2049,2.755656,0.2154599,0.16969069,77.3051,03/13.0/2017,2000,g 16.0,4.0
# From MPC103846
C/2015 X7 (ATLAS),h,07/30.3264/2016,57.5686,139.8807,348.5052,1.002106,3.684772,2000,9.0,4.0
# From MPC 10028
C/2015 X8 (NEOWISE),e,155.2825,191.1036,20.4086,19.55575,0.0113971,0.93911125,5.7767,03/13.0/2017,2000,g 16.0,4.0
# From MPC102954
C/2015 Y1 (LINEAR),e,71.2128,135.7734,24.7113,283.3439,0.0002066,0.99112644,0.0000,05/15.1651/2016,2000,g 12.0,4.0
# From MPC 10028
C/2015 YG1 (NEOWISE),e,57.2634,350.4777,102.6650,17.20163,0.0138150,0.87976886,7.3364,03/13.0/2017,2000,g 13.0,4.0
# From MPC103846
C/2016 A1 (PANSTARRS),h,11/23.2567/2017,121.1803,128.1748,10.3058,1.001731,5.328019,2000,6.0,4.0
# From MPC 10028
P/2016 A2 (Christensen),e,26.4072,291.7799,141.3180,4.738963,0.0955387,0.27446309,59.7228,03/13.0/2017,2000,g 11.5,4.0
# From MPC103846
P/2016 A3 (PANSTARRS),e,8.5940,187.7939,338.4727,7.720694,0.0459430,0.37966237,358.5482,03/13.0/2017,2000,g 10.0,4.0
# From MPC 99272
C/2016 A5 (PANSTARRS),e,40.2376,136.1208,321.6792,1215,0.0000233,0.99757445,0.0000,06/28.1997/2015,2000,g 13.5,4.0
# From MPC 99820
C/2016 A6 (PANSTARRS),e,120.9194,300.2638,141.0949,207.2817,0.0003303,0.98836037,0.0000,11/05.7951/2015,2000,g 15.0,4.0
# From MPC102098
P/2016 A7 (PANSTARRS),e,16.6372,221.4616,352.4957,5.022463,0.0875647,0.56655655,33.3700,03/13.0/2017,2000,g 16.0,4.0
# From MPC103846
C/2016 A8 (LINEAR),e,148.2109,111.2330,130.2643,34.99940,0.0047601,0.94625267,0.9251,03/13.0/2017,2000,g 12.0,4.0
# From MPC103846
C/2016 B1 (NEOWISE),e,50.4765,231.9540,8.5612,424.6037,0.0001126,0.99244902,0.0000,12/04.7254/2016,2000,g  9.5,4.0
# From MPC102954
P/2016 BA14 (PANSTARRS),e,18.9183,180.5303,351.9105,3.021852,0.1876265,0.66615465,68.0129,03/13.0/2017,2000,g 21.0,4.0
# From MPC103846
C/2016 C1 (PANSTARRS),h,02/18.6125/2016,56.1791,181.7802,328.6971,1.005296,8.461236,2000,5.5,4.0
# From MPC101098
C/2016 C2 (NEOWISE),e,38.1575,24.4020,214.4185,64.20315,0.0019159,0.97570353,0.0000,04/19.6220/2016,2000,g 16.0,4.0
# From MPC103846
C/2016 E1 (PANSTARRS),h,05/31.9495/2017,131.8900,233.0339,47.2794,1.003123,8.176865,2000,6.5,4.0
# From MPC 99821
C/2016 E2 (Kowalski),e,135.9459,186.6466,321.7120,133.8278,0.0006366,0.99197445,0.0000,02/06.4041/2016,2000,g 20.0,4.0
# From MPC102098
P/2016 G1 (PANSTARRS),e,10.9681,204.0733,111.2980,2.583292,0.2373799,0.21011404,10.8580,03/13.0/2017,2000,g 14.0,4.0
# From MPEC 2017-A77
P/2016 J1-A (PANSTARRS),e,14.3307,199.8556,46.5935,3.172346,0.1744348,0.22828506,45.6596,03/13.0/2017,2000,g 16.5,4.0
# From MPEC 2017-A77
P/2016 J1-B (PANSTARRS),e,14.3329,199.8589,46.5138,3.172050,0.1744592,0.22816816,45.7238,03/13.0/2017,2000,g 17.0,4.0
# From MPC101099
C/2016 J2 (Denneau),e,130.3433,186.1989,318.4500,553.3897,0.0000757,0.99725686,0.0000,04/11.8945/2016,2000,g 17.0,4.0
# From MPC102099
C/2016 KA (Catalina),e,104.6294,317.5543,63.1208,4381,0.0000034,0.99876698,0.0000,02/01.4980/2016,2000,g  8.5,4.0
# From MPC102099
C/2016 K1 (LINEAR),h,07/13.3619/2016,90.8443,325.7004,18.2493,1.000029,2.291475,2000,13.0,4.0
# From MPC103846
C/2016 M1 (PANSTARRS),e,90.9958,92.1986,209.8219,1889,0.0000120,0.99882962,0.0000,08/10.2350/2018,2000,g  5.0,4.0
# From MPC103846
C/2016 N4 (MASTER),e,72.5600,354.0332,55.9583,6970,0.0000017,0.99954101,0.0000,09/16.6029/2017,2000,g  8.5,4.0
# From MPC103847
C/2016 N6 (PANSTARRS),e,105.8309,298.9823,162.7996,1581,0.0000157,0.99831190,0.0000,07/18.2733/2018,2000,g  7.0,4.0
# From MPC102099
P/2016 P1 (PANSTARRS),e,24.4534,319.6184,269.8689,3.194638,0.1726122,0.28961224,92.7097,03/13.0/2017,2000,g 15.0,4.0
# From MPC102099
P/2016 P2 (PANSTARRS),e,12.7862,283.4925,352.3741,4.433250,0.1055895,0.29588806,50.9179,03/13.0/2017,2000,g 12.5,4.0
# From MPC102099
C/2016 P4 (PANSTARRS),e,29.9018,320.7927,356.0157,333.8330,0.0001616,0.98235969,0.0000,10/16.6326/2016,2000,g 10.5,4.0
# From MPC102099
C/2016 Q2 (PANSTARRS),e,109.6498,322.3259,83.8599,360.0185,0.0001443,0.97998323,0.0000,05/28.4529/2021,2000,g  6.0,4.0
# From MPC102955
C/2016 Q4 (Kowalski),e,7.2567,271.3250,99.4191,16.79033,0.0143257,0.57799211,355.4105,03/13.0/2017,2000,g  7.0,4.0
# From MPC103847
C/2016 R2 (PANSTARRS),e,58.2156,80.5748,33.1952,749.6468,0.0000480,0.99652882,0.0000,05/09.5920/2018,2000,g  7.0,4.0
# From MPC102099
